NORAD_CAT_ID,OBJECT_NAME,OBJECT_TYPE,EPOCH,MEAN_MOTION,ECCENTRICITY,INCLINATION,RA_OF_ASC_NODE,ARG_OF_PERICENTER,MEAN_ANOMALY,BSTAR,MEAN_MOTION_DOT,MEAN_MOTION_DDOT,TLE_LINE0,TLE_LINE1,TLE_LINE2,SEMIMAJOR_AXIS,PERIOD,APOGEE,PERIGEE,DECAYED
55949.0,STARLINK-5899,PAYLOAD,2024-06-30 20:35:10,14.98343486,0.0003098,70.0018,19.8762,267.9209,92.1595,0.00046267,5.434e-05,0.0,0 STARLINK-5899,1 55949U 23037AM  24182.85775468  .00005434  00000-0  46267-3 0  9998,2 55949  70.0018  19.8762 0003098 267.9209  92.1595 14.98343486 72413,6950.151,96.106,574.169,569.863,0.0
55949.0,STARLINK-5899,PAYLOAD,2024-06-30 22:11:18,14.98343085,0.0003036,70.0021,19.708,269.4602,90.6209,0.00051946,6.113e-05,0.0,0 STARLINK-5899,1 55949U 23037AM  24182.92451504  .00006113  00000-0  51946-3 0  9993,2 55949  70.0021  19.7080 0003036 269.4602  90.6209 14.98343085 72088,6950.152,96.106,574.127,569.907,0.0
55949.0,STARLINK-5899,PAYLOAD,2024-07-01 12:36:30,14.98334628,0.0002452,70.0045,18.1928,274.5053,85.5826,0.00013908,1.567e-05,0.0,0 STARLINK-5899,1 55949U 23037AM  24183.52535863  .00001567  00000-0  13908-3 0  9995,2 55949  70.0045  18.1928 0002452 274.5053  85.5826 14.98334628 72515,6950.179,96.107,573.748,570.339,0.0
55949.0,STARLINK-5899,PAYLOAD,2024-07-01 14:12:39,14.98333594,0.0002499,70.002,18.0252,275.0438,85.0435,0.0002534,2.932e-05,0.0,0 STARLINK-5899,1 55949U 23037AM  24183.59211925  .00002932  00000-0  25340-3 0  9992,2 55949  70.0020  18.0252 0002499 275.0438  85.0435 14.98333594 72186,6950.182,96.107,573.784,570.31,0.0
55949.0,STARLINK-5899,PAYLOAD,2024-07-01 20:37:11,14.98322935,0.0002862,70.0027,17.3522,271.1877,88.8954,-0.00024766,-3.046e-05,0.0,0 STARLINK-5899,1 55949U 23037AM  24183.85916141 -.00003046  00000-0 -24766-3 0  9993,2 55949  70.0027  17.3522 0002862 271.1877  88.8954 14.98322935 72569,6950.215,96.107,574.069,570.091,0.0
55949.0,STARLINK-5899,PAYLOAD,2024-07-01 22:13:19,14.98322483,0.0002852,70.0027,17.1848,267.4526,92.6307,-4.0639e-05,-5.78e-06,0.0,0 STARLINK-5899,1 55949U 23037AM  24183.92592386 -.00000578  00000-0 -40639-4 0  9997,2 55949  70.0027  17.1848 0002852 267.4526  92.6307 14.98322483 72233,6950.216,96.107,574.063,570.099,0.0
55949.0,STARLINK-5899,PAYLOAD,2024-07-02 14:14:40,14.98336504,0.0003108,70.0016,15.4999,270.8247,89.2556,0.00015643,1.774e-05,0.0,0 STARLINK-5899,1 55949U 23037AM  24184.59351912  .00001774  00000-0  15643-3 0  9992,2 55949  70.0016  15.4999 0003108 270.8247  89.2556 14.98336504 72330,6950.173,96.107,574.198,569.878,0.0
55949.0,STARLINK-5899,PAYLOAD,2024-07-02 20:39:12,14.98340056,0.0003054,70.0022,14.8275,272.1311,87.9499,0.00049365,5.804e-05,0.0,0 STARLINK-5899,1 55949U 23037AM  24184.86055875  .00005804  00000-0  49365-3 0  9997,2 55949  70.0022  14.8275 0003054 272.1311  87.9499 14.98340056 72714,6950.162,96.106,574.149,569.904,0.0
55949.0,STARLINK-5899,PAYLOAD,2024-07-02 22:15:20,14.98339106,0.0003018,70.0023,14.6595,271.0662,89.0151,0.00046368,5.445e-05,0.0,0 STARLINK-5899,1 55949U 23037AM  24184.92731877  .00005445  00000-0  46368-3 0  9998,2 55949  70.0023  14.6595 0003018 271.0662  89.0151 14.98339106 72380,6950.165,96.106,574.127,569.932,0.0
55949.0,STARLINK-5899,PAYLOAD,2024-07-03 12:40:32,14.98334192,0.0003109,70.002,13.1434,272.2532,87.8271,0.00026856,3.113e-05,0.0,0 STARLINK-5899,1 55949U 23037AM  24185.52815963  .00003113  00000-0  26856-3 0  9994,2 55949  70.0020  13.1434 0003109 272.2532  87.8271 14.98334192 72810,6950.18,96.107,574.206,569.884,0.0
55949.0,STARLINK-5899,PAYLOAD,2024-07-03 22:17:21,14.9833813,0.0003114,70.0019,12.1325,270.699,89.3812,0.00030686,3.571e-05,0.0,0 STARLINK-5899,1 55949U 23037AM  24185.92871727  .00003571  00000-0  30686-3 0  9992,2 55949  70.0019  12.1325 0003114 270.6990  89.3812 14.98338130 72535,6950.168,96.106,574.197,569.868,0.0
55949.0,STARLINK-5899,PAYLOAD,2024-07-04 12:42:33,14.98335903,0.0003033,70.0021,10.6169,270.3367,89.7445,7.2925e-05,7.77e-06,0.0,0 STARLINK-5899,1 55949U 23037AM  24186.52955585  .00000777  00000-0  72925-4 0  9992,2 55949  70.0021  10.6169 0003033 270.3367  89.7445 14.98335903 72960,6950.175,96.107,574.148,569.932,0.0
55949.0,STARLINK-5899,PAYLOAD,2024-07-04 14:18:41,14.98335012,0.0003033,70.0017,10.4486,270.4924,89.5887,4.027e-05,3.88e-06,0.0,0 STARLINK-5899,1 55949U 23037AM  24186.59631648  .00000388  00000-0  40270-4 0  9996,2 55949  70.0017  10.4486 0003033 270.4924  89.5887 14.98335012 72638,6950.177,96.107,574.15,569.934,0.0
55949.0,STARLINK-5899,PAYLOAD,2024-07-04 22:19:22,14.98336118,0.0003049,70.0007,9.607,270.1971,89.8838,4.5491e-05,4.5e-06,0.0,0 STARLINK-5899,1 55949U 23037AM  24186.93011602  .00000450  00000-0  45491-4 0  9996,2 55949  70.0007   9.6070 0003049 270.1971  89.8838 14.98336118 72684,6950.174,96.107,574.158,569.92,0.0
55949.0,STARLINK-5899,PAYLOAD,2024-07-05 12:44:34,14.98332895,0.0003148,70.0005,8.0929,271.0114,89.0684,5.109e-05,5.17e-06,0.0,0 STARLINK-5899,1 55949U 23037AM  24187.53095689  .00000517  00000-0  51090-4 0  9996,2 55949  70.0005   8.0929 0003148 271.0114  89.0684 14.98332895 73115,6950.184,96.107,574.237,569.861,0.0
55949.0,STARLINK-5899,PAYLOAD,2024-07-05 14:20:42,14.98333231,0.0003148,70.0005,7.9246,271.0352,89.0447,5.1585e-05,5.23e-06,0.0,0 STARLINK-5899,1 55949U 23037AM  24187.59771644  .00000523  00000-0  51585-4 0  9990,2 55949  70.0005   7.9246 0003148 271.0352  89.0447 14.98333231 72783,6950.183,96.107,574.236,569.86,0.0
55949.0,STARLINK-5899,PAYLOAD,2024-07-05 22:21:22,14.98337213,0.000313,70.0006,7.0829,271.1661,88.914,8.9332e-05,9.73e-06,0.0,0 STARLINK-5899,1 55949U 23037AM  24187.93151232  .00000973  00000-0  89332-4 0  9993,2 55949  70.0006   7.0829 0003130 271.1661  88.9140 14.98337213 72835,6950.171,96.107,574.211,569.86,0.0
55949.0,STARLINK-5899,PAYLOAD,2024-07-06 12:46:35,14.98330184,0.0003001,70.0009,5.568,273.879,86.2026,4.9228e-05,4.94e-06,0.0,0 STARLINK-5899,1 55949U 23037AM  24188.53235661  .00000494  00000-0  49228-4 0  9997,2 55949  70.0009   5.5680 0003001 273.8790  86.2026 14.98330184 73267,6950.192,96.107,574.143,569.972,0.0
55949.0,STARLINK-5899,PAYLOAD,2024-07-06 14:22:43,14.98329738,0.0003014,70.0009,5.3997,273.7263,86.3552,4.231e-05,4.12e-06,0.0,0 STARLINK-5899,1 55949U 23037AM  24188.59911693  .00000412  00000-0  42310-4 0  9994,2 55949  70.0009   5.3997 0003014 273.7263  86.3552 14.98329738 72935,6950.194,96.107,574.153,569.964,0.0
55949.0,STARLINK-5899,PAYLOAD,2024-07-06 22:23:23,14.98331899,0.0003006,70.0009,4.5586,271.5048,88.5766,6.5413e-05,6.88e-06,0.0,0 STARLINK-5899,1 55949U 23037AM  24188.93291493  .00000688  00000-0  65413-4 0  9995,2 55949  70.0009   4.5586 0003006 271.5048  88.5766 14.98331899 72985,6950.187,96.107,574.141,569.963,0.0
55949.0,STARLINK-5899,PAYLOAD,2024-07-07 12:48:36,14.98332599,0.0002973,70.0009,3.0432,269.6067,90.4751,4.9711e-05,5e-06,0.0,0 STARLINK-5899,1 55949U 23037AM  24189.53375453  .00000500  00000-0  49711-4 0  9997,2 55949  70.0009   3.0432 0002973 269.6067  90.4751 14.98332599 73413,6950.185,96.107,574.116,569.984,0.0
55949.0,STARLINK-5899,PAYLOAD,2024-07-07 14:24:44,14.9833245,0.0002982,70.0009,2.8749,269.459,90.6227,4.6084e-05,4.57e-06,0.0,0 STARLINK-5899,1 55949U 23037AM  24189.60051455  .00000457  00000-0  46084-4 0  9999,2 55949  70.0009   2.8749 0002982 269.4590  90.6227 14.98332450 73089,6950.185,96.107,574.123,569.978,0.0
55949.0,STARLINK-5899,PAYLOAD,2024-07-08 12:50:37,14.9832883,0.0002994,70.001,0.5181,270.4586,89.623,4.3388e-05,4.25e-06,0.0,0 STARLINK-5899,1 55949U 23037AM  24190.53515607  .00000425  00000-0  43388-4 0  9996,2 55949  70.0010   0.5181 0002994 270.4586  89.6230 14.98328830 73568,6950.197,96.107,574.142,569.981,0.0
55949.0,STARLINK-5899,PAYLOAD,2024-07-08 14:26:45,14.9832867,0.0003001,70.001,0.3498,270.3877,89.6938,4.0472e-05,3.9e-06,0.0,0 STARLINK-5899,1 55949U 23037AM  24190.60191624  .00000390  00000-0  40472-4 0  9995,2 55949  70.0010   0.3498 0003001 270.3877  89.6938 14.98328670 73230,6950.197,96.107,574.148,569.976,0.0
55949.0,STARLINK-5899,PAYLOAD,2024-07-08 20:51:17,14.98330585,0.000298,70.0011,359.6765,270.3469,89.7349,6.5134e-05,6.84e-06,0.0,0 STARLINK-5899,1 55949U 23037AM  24190.86895472  .00000684  00000-0  65134-4 0  9993,2 55949  70.0011 359.6765 0002980 270.3469  89.7349 14.98330585 73279,6950.191,96.107,574.127,569.985,0.0
55949.0,STARLINK-5899,PAYLOAD,2024-07-09 12:52:38,14.98331895,0.0002984,70.0012,357.9941,270.2396,89.8421,4.1085e-05,3.97e-06,0.0,0 STARLINK-5899,1 55949U 23037AM  24191.53655389  .00000397  00000-0  41085-4 0  9999,2 55949  70.0012 357.9941 0002984 270.2396  89.8421 14.98331895 73715,6950.187,96.107,574.126,569.978,0.0
55949.0,STARLINK-5899,PAYLOAD,2024-07-09 14:28:46,14.98332072,0.0002987,70.0012,357.8257,270.2746,89.8071,4.2877e-05,4.19e-06,0.0,0 STARLINK-5899,1 55949U 23037AM  24191.60331363  .00000419  00000-0  42877-4 0  9995,2 55949  70.0012 357.8257 0002987 270.2746  89.8071 14.98332072 73388,6950.186,96.107,574.128,569.975,0.0
55949.0,STARLINK-5899,PAYLOAD,2024-07-09 20:53:18,14.98332734,0.000297,70.0013,357.1525,270.215,89.8669,6.0088e-05,6.24e-06,0.0,0 STARLINK-5899,1 55949U 23037AM  24191.87035258  .00000624  00000-0  60088-4 0  9990,2 55949  70.0013 357.1525 0002970 270.2150  89.8669 14.98332734 73424,6950.184,96.107,574.114,569.985,0.0
55949.0,STARLINK-5899,PAYLOAD,2024-07-10 11:18:31,14.98328389,0.0003018,70.0011,355.6366,271.0243,89.057,4.5444e-05,4.49e-06,0.0,0 STARLINK-5899,1 55949U 23037AM  24192.47119560  .00000449  00000-0  45444-4 0  9990,2 55949  70.0011 355.6366 0003018 271.0243  89.0570 14.98328389 73518,6950.198,96.107,574.16,569.965,0.0
55949.0,STARLINK-5899,PAYLOAD,2024-07-10 20:55:19,14.98330229,0.0003061,70.001,354.6265,270.3004,89.7805,3.8738e-05,3.69e-06,0.0,0 STARLINK-5899,1 55949U 23037AM  24192.87175461  .00000369  00000-0  38738-4 0  9995,2 55949  70.0010 354.6265 0003061 270.3004  89.7805 14.98330229 73917,6950.192,96.107,574.185,569.93,0.0
